[Satellite]
VERSION=1.1
NAME=IRIDIUM 111
NICKNAME=IRIDIUM 111
TLE1=1 41926U 17003K   22342.51959732  .00000302  00000+0  10095-3 0  9999
TLE2=2 41926  86.3971 265.9977 0001864  79.9088 280.2318 14.34214271308838
STATUS=0
